OBJECT_NAME,OBJECT_ID,EPOCH,MEAN_MOTION,ECCENTRICITY,INCLINATION,RA_OF_ASC_NODE,ARG_OF_PERICENTER,MEAN_ANOMALY,EPHEMERIS_TYPE,CLASSIFICATION_TYPE,NORAD_CAT_ID,ELEMENT_SET_NO,REV_AT_EPOCH,BSTAR,MEAN_MOTION_DOT,MEAN_MOTION_DDOT
QIANFAN-154,2026-108K,2026-06-05T03:21:45.130752,14.20188756,.0015798,89.0124,23.5504,150.8420,209.3656,0,U,69113,999,264,.14235E-3,.318E-5,0
QIANFAN-155,2026-108L,2026-06-05T03:24:43.189920,14.19534128,.0016505,89.0123,23.5507,151.1994,209.0110,0,U,69114,999,264,.15288E-3,.337E-5,0
QIANFAN-156,2026-108M,2026-06-05T01:34:57.497664,14.20956703,.0016127,89.0127,23.5583,152.6585,207.5458,0,U,69115,999,263,.15703E-3,.355E-5,0
QIANFAN-157,2026-108N,2026-06-05T01:04:42.286368,14.24907192,.0016412,89.0123,23.5546,157.6289,202.5623,0,U,69116,999,263,.16504E-3,.4E-5,0
QIANFAN-158,2026-108P,2026-06-05T01:27:28.162368,14.21846132,.0016059,89.0122,23.5568,154.0249,206.1752,0,U,69117,999,263,.16074E-3,.369E-5,0
QIANFAN-159,2026-108Q,2026-06-05T01:22:32.755584,14.22291802,.0015751,89.0121,23.5561,153.8962,206.3027,0,U,69118,999,263,.56646E-4,.14E-5,0
QIANFAN-160,2026-108R,2026-06-05T01:18:39.943008,14.22716231,.0015489,89.0123,23.5558,153.6060,206.5924,0,U,69119,999,263,.39201E-4,.102E-5,0
QIANFAN-161,2026-108S,2026-06-05T01:14:31.396992,14.23187768,.0015481,89.0123,23.5555,154.4598,205.7362,0,U,69120,999,263,.15891E-3,.374E-5,0
QIANFAN-162,2026-108T,2026-06-05T01:12:18.145728,14.23623201,.0015325,89.0123,23.5553,155.6634,204.5285,0,U,69121,999,263,.16238E-3,.385E-5,0
SMILE,2026-109A,2026-05-24T15:40:35.120928,14.57062785,.00091232,70.0007,229.2745,259.5159,100.4951,0,U,69123,999,80,-.42378883E-3,-.1976E-4,0
STARLINK-37726,2026-110A,2026-06-05T02:00:04.000032,15.55978510,.000198,97.2858,352.1831,109.3580,199.3733,0,U,69124,999,371,-.39685E-1,-.2408358E-1,0
STARLINK-37722,2026-110B,2026-06-05T02:00:04.000032,15.71058781,.000181,97.2843,352.2725,91.3330,69.6831,0,U,69125,999,376,-.17862E-1,-.1977747E-1,0
STARLINK-37715,2026-110C,2026-06-05T02:43:21.324000,15.80850432,.000155,97.2841,352.3170,82.1679,277.9765,0,U,69126,999,373,.81585E-3,.159269E-2,0
STARLINK-37706,2026-110D,2026-06-05T01:11:06.984096,15.80850416,.0001423,97.2843,352.2510,103.6216,256.5211,0,U,69127,999,372,.70307E-3,.136877E-2,0
STARLINK-37723,2026-110E,2026-06-05T01:10:02.104608,15.80839239,.0001348,97.2845,352.2521,89.4115,270.7307,0,U,69128,999,372,.71262E-3,.138697E-2,0
STARLINK-37720,2026-110F,2026-06-05T02:00:04.000032,15.56239093,.0001525,97.2852,352.2014,81.6633,275.7677,0,U,69129,999,371,-.42857E-1,-.2650365E-1,0
STARLINK-37533,2026-110G,2026-06-05T02:37:56.490240,15.80861925,.0001227,97.2844,352.3226,62.0219,298.1173,0,U,69130,999,373,.77232E-3,.150692E-2,0
STARLINK-37530,2026-110H,2026-06-05T02:36:51.920928,15.80825407,.000148,97.2843,352.3239,90.6376,269.5062,0,U,69131,999,373,.56467E-3,.109433E-2,0
STARLINK-37660,2026-110J,2026-06-05T02:00:04.000032,15.72765233,.0001779,97.2844,352.2848,94.3974,96.7291,0,U,69132,999,371,-.16662E-1,-.1942673E-1,0
STARLINK-37633,2026-110K,2026-06-05T02:00:04.000032,15.73671440,.0001774,97.2846,352.2891,92.1729,109.1564,0,U,69133,999,371,-.16E-1,-.1940132E-1,0
STARLINK-37361,2026-110L,2026-06-05T02:33:36.966240,15.80843837,.0001789,97.2845,352.3267,70.4393,289.7068,0,U,69134,999,373,.70764E-3,.137743E-2,0
STARLINK-37372,2026-110M,2026-06-05T02:00:04.000032,15.77392585,.0001912,97.2846,352.3002,89.2560,135.8768,0,U,69135,999,371,-.1752E-1,-.2470232E-1,0
STARLINK-37531,2026-110N,2026-06-04T23:29:14.771616,15.80232287,.0001143,97.2845,352.1950,67.1046,293.0343,0,U,69136,999,371,-.32665E-2,-.57109E-2,0
STARLINK-37662,2026-110P,2026-06-05T02:00:04.000032,15.75423532,.0001924,97.2852,352.3012,99.5063,126.7502,0,U,69137,999,371,-.16979E-1,-.2230506E-1,0
STARLINK-37658,2026-110Q,2026-06-05T02:00:04.000032,15.68577683,.0002019,97.2847,352.2808,92.2430,85.8850,0,U,69138,999,371,-.26246E-1,-.2582319E-1,0
STARLINK-37659,2026-110R,2026-06-05T02:00:04.000032,15.66562168,.0001985,97.2848,352.2725,88.8552,72.0972,0,U,69139,999,371,-.28043E-1,-.2546054E-1,0
STARLINK-37653,2026-110S,2026-06-05T02:00:04.000032,15.65328433,.0001971,97.2849,352.2734,93.3317,69.4470,0,U,69140,999,371,-.3008E-1,-.2591217E-1,0
STARLINK-37654,2026-110T,2026-06-05T02:00:04.000032,15.75703387,.0001438,97.2848,352.3096,133.6133,114.0370,0,U,69141,999,371,-.18303E-1,-.2404328E-1,0
STARLINK-37655,2026-110U,2026-06-05T02:00:04.000032,15.76758547,.0001595,97.2848,352.3129,96.7481,157.9226,0,U,69142,999,371,-.13993E-1,-.1942379E-1,0
