QIANFAN-154             
1 69113U 26108K   26156.14010568  .00000318  00000+0  14235-3 0  9991
2 69113  89.0124  23.5504 0015798 150.8420 209.3656 14.20188756  2640
QIANFAN-155             
1 69114U 26108L   26156.14216655  .00000337  00000+0  15288-3 0  9997
2 69114  89.0123  23.5507 0016505 151.1994 209.0110 14.19534128  2648
QIANFAN-156             
1 69115U 26108M   26156.06594326  .00000355  00000+0  15703-3 0  9995
2 69115  89.0127  23.5583 0016127 152.6585 207.5458 14.20956703  2635
QIANFAN-157             
1 69116U 26108N   26156.04493387  .00000400  00000+0  16504-3 0  9990
2 69116  89.0123  23.5546 0016412 157.6289 202.5623 14.24907192  2635
QIANFAN-158             
1 69117U 26108P   26156.06074262  .00000369  00000+0  16074-3 0  9996
2 69117  89.0122  23.5568 0016059 154.0249 206.1752 14.21846132  2639
QIANFAN-159             
1 69118U 26108Q   26156.05732356  .00000140  00000+0  56646-4 0  9998
2 69118  89.0121  23.5561 0015751 153.8962 206.3027 14.22291802  2635
QIANFAN-160             
1 69119U 26108R   26156.05462897  .00000102  00000+0  39201-4 0  9995
2 69119  89.0123  23.5558 0015489 153.6060 206.5924 14.22716231  2635
QIANFAN-161             
1 69120U 26108S   26156.05175228  .00000374  00000+0  15891-3 0  9995
2 69120  89.0123  23.5555 0015481 154.4598 205.7362 14.23187768  2636
QIANFAN-162             
1 69121U 26108T   26156.05021002  .00000385  00000+0  16238-3 0  9994
2 69121  89.0123  23.5553 0015325 155.6634 204.5285 14.23623201  2634
SMILE                   
1 69123U 26109A   26144.65318427 -.00001976  00000+0 -42379-3 0  9994
2 69123  70.0007 229.2745 0009123 259.5159 100.4951 14.57062785   802
STARLINK-37726          
1 69124U 26110A   26156.08337963 -.02408358  00000+0 -39685-1 0  9994
2 69124  97.2858 352.1831 0001980 109.3580 199.3733 15.55978510  3712
STARLINK-37722          
1 69125U 26110B   26156.08337963 -.01977747  00000+0 -17862-1 0  9990
2 69125  97.2843 352.2725 0001810  91.3330  69.6831 15.71058781  3765
STARLINK-37715          
1 69126U 26110C   26156.11344125  .00159269  00000+0  81585-3 0  9996
2 69126  97.2841 352.3170 0001550  82.1679 277.9765 15.80850432  3734
STARLINK-37706          
1 69127U 26110D   26156.04938639  .00136877  00000+0  70307-3 0  9998
2 69127  97.2843 352.2510 0001423 103.6216 256.5211 15.80850416  3729
STARLINK-37723          
1 69128U 26110E   26156.04863547  .00138697  00000+0  71262-3 0  9997
2 69128  97.2845 352.2521 0001348  89.4115 270.7307 15.80839239  3723
STARLINK-37720          
1 69129U 26110F   26156.08337963 -.02650365  00000+0 -42857-1 0  9991
2 69129  97.2852 352.2014 0001525  81.6633 275.7677 15.56239093  3714
STARLINK-37533          
1 69130U 26110G   26156.10968160  .00150692  00000+0  77232-3 0  9996
2 69130  97.2844 352.3226 0001227  62.0219 298.1173 15.80861925  3739
STARLINK-37530          
1 69131U 26110H   26156.10893427  .00109433  00000+0  56467-3 0  9994
2 69131  97.2843 352.3239 0001480  90.6376 269.5062 15.80825407  3739
STARLINK-37660          
1 69132U 26110J   26156.08337963 -.01942673  00000+0 -16662-1 0  9995
2 69132  97.2844 352.2848 0001779  94.3974  96.7291 15.72765233  3715
STARLINK-37633          
1 69133U 26110K   26156.08337963 -.01940132  00000+0 -16000-1 0  9990
2 69133  97.2846 352.2891 0001774  92.1729 109.1564 15.73671440  3714
STARLINK-37361          
1 69134U 26110L   26156.10667785  .00137743  00000+0  70764-3 0  9994
2 69134  97.2845 352.3267 0001789  70.4393 289.7068 15.80843837  3739
STARLINK-37372          
1 69135U 26110M   26156.08337963 -.02470232  00000+0 -17520-1 0  9990
2 69135  97.2846 352.3002 0001912  89.2560 135.8768 15.77392585  3711
STARLINK-37531          
1 69136U 26110N   26155.97864319 -.00571090  00000+0 -32665-2 0  9998
2 69136  97.2845 352.1950 0001143  67.1046 293.0343 15.80232287  3713
STARLINK-37662          
1 69137U 26110P   26156.08337963 -.02230506  00000+0 -16979-1 0  9997
2 69137  97.2852 352.3012 0001924  99.5063 126.7502 15.75423532  3716
STARLINK-37658          
1 69138U 26110Q   26156.08337963 -.02582319  00000+0 -26246-1 0  9998
2 69138  97.2847 352.2808 0002019  92.2430  85.8850 15.68577683  3717
STARLINK-37659          
1 69139U 26110R   26156.08337963 -.02546054  00000+0 -28043-1 0  9992
2 69139  97.2848 352.2725 0001985  88.8552  72.0972 15.66562168  3717
STARLINK-37653          
1 69140U 26110S   26156.08337963 -.02591217  00000+0 -30080-1 0  9999
2 69140  97.2849 352.2734 0001971  93.3317  69.4470 15.65328433  3712
STARLINK-37654          
1 69141U 26110T   26156.08337963 -.02404328  00000+0 -18303-1 0  9990
2 69141  97.2848 352.3096 0001438 133.6133 114.0370 15.75703387  3718
STARLINK-37655          
1 69142U 26110U   26156.08337963 -.01942379  00000+0 -13993-1 0  9993
2 69142  97.2848 352.3129 0001595  96.7481 157.9226 15.76758547  3710
